#Pass ID: 20260120_220128_FENGYUN 3G
#Satellite: FENGYUN 3G
#Configuration: FENGYUN 3G
#Start time: 2026-01-20 22:01:33.202422

#LorettStation: 1.0.0 05.05.2024
#Station: Regia
#Location: 37.494653 lon 55.929028 lat
#TLE: 1 56232U 23055A   26020.19436899  .00056262  00000+0  85928-3 0  9997
#TLE: 2 56232  49.9940  29.1271 0004169  54.2682 305.8673 15.53816929157008

#Time	Az	El	Level	SNR
#Closed at: 2026-01-20 22:01:28.203920